FLOCK 4BE-29            
1 60509U 24149AT  26133.49655189  .00010213  00000+0  23383-3 0  9990
2 60509  97.3808 218.8800 0003818  80.5745 279.5934 15.42977404 97067
TRANSPORTER-11 OBJECT AU
1 60510U 24149AU  26133.48323935  .00009386  00000+0  24333-3 0  9997
2 60510  97.3730 216.9544 0004696  68.9191 291.2556 15.39228002 96976
FLOCK 4BE-2             
1 60511U 24149AV  26133.21487690  .00029203  00000+0  53854-3 0  9998
2 60511  97.3823 219.6194 0003587  79.5379 280.6276 15.49082723 97088
FLOCK 4BE-13            
1 60512U 24149AW  26133.22942824  .00008685  00000+0  21315-3 0  9993
2 60512  97.3720 217.3048 0004682  52.7691 307.3983 15.40926586 96980
FLOCK 4BE-27            
1 60513U 24149AX  26133.16795012  .00005964  00000+0  18470-3 0  9997
2 60513  97.3828 215.0197 0005304  78.3162 281.8675 15.33823123 96775
FLOCK 4BE-9             
1 60514U 24149AY  26133.46250219  .00009765  00000+0  24898-3 0  9990
2 60514  97.3792 217.4272 0003987  82.0865 278.0833 15.39729723 96976
FLOCK 4BE-6             
1 60516U 24149BA  26133.46493898  .00008112  00000+0  21494-3 0  9998
2 60516  97.3793 216.8510 0004712  77.6666 282.5107 15.38601570 96931
FLOCK 4BE-14            
1 60517U 24149BB  26133.47896568  .00011021  00000+0  27906-3 0  9998
2 60517  97.3699 216.9741 0005509  74.2797 285.9056 15.39899575 96987
FLOCK 4BE-1             
1 60518U 24149BC  26133.20546201  .00009667  00000+0  23327-3 0  9992
2 60518  97.3781 217.8533 0005063  75.2638 284.9169 15.41405470 96983
FLOCK 4BE-28            
1 60519U 24149BD  26133.20651185  .00011099  00000+0  24810-3 0  9991
2 60519  97.3748 218.4723 0005141  70.0187 290.1615 15.43662518 97047
IPERDRONE.0             
1 60520U 24149BE  26133.24775618  .00039554  00000+0  45417-3 0  9997
2 60520  97.3777 224.8724 0001529  39.3863 320.7506 15.61959680 97451
TRANSPORTER-11 OBJECT BF
1 60521U 24149BF  26133.24744870  .00086595  00000+0  64254-3 0  9991
2 60521  97.3783 226.8530 0000589 315.6836  44.4381 15.72613137 97571
CONNECTA IOT-2          
1 60522U 24149BG  26133.17957802  .00002973  00000+0  12685-3 0  9994
2 60522  97.3843 211.8637 0008169  90.0860 270.1314 15.23665884 96568
PTD-R (TYVAK-0127)      
1 60523U 24149BH  26133.20446314  .00125547  00000+0  46130-3 0  9995
2 60523  97.3772 230.8451 0001400 221.6540 138.4625 15.87958571 97855
CONNECTA IOT-4          
1 60524U 24149BJ  26133.47731609  .00011486  00000+0  28190-3 0  9991
2 60524  97.3801 217.4735 0006173  66.3061 293.8832 15.40835509 96982
ORESAT0.5               
1 60525U 24149BK  26133.45388545  .00012083  00000+0  26901-3 0  9999
2 60525  97.3721 218.9600 0006114  56.6740 303.5092 15.43756176 97110
DEIMOS                  
1 60526U 24149BL  26133.20822953  .00010528  00000+0  24103-3 0  9993
2 60526  97.3781 218.8676 0006306  63.1413 297.0479 15.42956668 97058
CUAVA-2                 
1 60527U 24149BM  26133.48334017  .00007715  00000+0  22725-3 0  9995
2 60527  97.3728 214.9664 0007804  65.4706 294.7350 15.35296630 96844
ERNST                   
1 60528U 24149BN  26133.18276980  .00009606  00000+0  25676-3 0  9996
2 60528  97.3809 216.6668 0007220  70.1848 290.0175 15.38264328 96891
TORO                    
1 60530U 24149BQ  26133.19952616  .00000920  00000+0  86426-4 0  9998
2 60530  97.6788 208.5228 0001601  96.3722 263.7682 14.96287843 94723
HYPSO-2                 
1 60531U 24149BR  26133.48242968  .00001673  00000+0  14436-3 0  9990
2 60531  97.6818 210.2507 0002329 110.0646 250.0827 14.98610791 94853
LEMU NGE                
1 60532U 24149BS  26133.44497166  .00000997  00000+0  96811-4 0  9995
2 60532  97.6847 209.1091 0002548 112.0214 248.1278 14.94804322 94766
LEMUR-2-STELLA          
1 60533U 24149BT  26133.45612014  .00006497  00000+0  39265-3 0  9998
2 60533  97.6734 215.7825 0001909 123.3572 236.7840 15.11019603 95255
SATELIOT_2              
1 60534U 24149BU  26133.45270543  .00000571  00000+0  55614-4 0  9990
2 60534  97.6833 209.0446 0001340 109.4874 250.6492 14.96227877 94770
NIGHTJAR                
1 60535U 24149BV  26133.21169816  .00001748  00000+0  14990-3 0  9993
2 60535  97.6836 210.4082 0001355 151.1300 208.9998 14.98804080137639
LEMUR-2-MARHISYAM       
1 60536U 24149BW  26133.22551588  .00006005  00000+0  36840-3 0  9995
2 60536  97.6878 215.9632 0001549 187.9861 172.1344 15.10506953 95207
SATELIOT_4              
1 60537U 24149BX  26133.47071683  .00001183  00000+0  10907-3 0  9994
2 60537  97.6737 208.6134 0003095 130.3833 229.7659 14.96534973 94783
PICO-02A021             
1 60538U 24149BY  26133.48232972  .00003085  00000+0  23427-3 0  9990
2 60538  97.6770 212.6235 0006825 125.9573 234.2286 15.02914671 94527
ICEYE-X43               
1 60539U 24149BZ  26133.46762278  .00001595  00000+0  13389-3 0  9996
2 60539  97.6772 210.9120 0004530 197.5457 162.5610 14.99747683 94910
HAWK-10A                
1 60540U 24149CA  26133.19857539  .00000577  00000+0  55990-4 0  9997
2 60540  97.6894 209.7129 0003560 167.1449 192.9864 14.96398487 94759
